{"type": "FeatureCollection", "features": [ {"type": "Feature", "properties": {"norad_id": 66615, "name": "STARLINK-35988", "group": "last-30-days", "lat": -8.971650104438973, "lon": -46.18958553854051, "alt_km": 444.53885357762465, "timestamp": "2025-12-24T14:43:27.719038+00:00", "meta": {"OBJECT_NAME": "STARLINK-35988", "OBJECT_ID": "2025-270AD", "EPOCH": "2025-12-23T16:06:31.542624", "MEAN_MOTION": 15.40730265, "ECCENTRICITY": 2.525e-05, "INCLINATION": 42.9947, "RA_OF_ASC_NODE": 129.4869, "ARG_OF_PERICENTER": 99.5694, "MEAN_ANOMALY": 260.5191, "EPHEMERIS_TYPE": 0, "CLASSIFICATION_TYPE": "U", "NORAD_CAT_ID": 66615, "ELEMENT_SET_NO": 999, "REV_AT_EPOCH": 587, "BSTAR": 0.0011463398, "MEAN_MOTION_DOT": 0.00047931, "MEAN_MOTION_DDOT": 0}, "tle": {"line1": "1 66615U 25270AD  25357.67119841  .00047931  00000+0  11463-2 0  9999", "line2": "2 66615  42.9947 129.4869 0000252  99.5694 260.5191 15.40730265  5878"}}, "geometry": {"type": "Point", "coordinates": [-46.18958553854051, -8.971650104438973]}}, {"type": "Feature", "properties": {"norad_id": 66616, "name": "STARLINK-35391", "group": "last-30-days", "lat": -38.96558668385333, "lon": 63.607217812656174, "alt_km": 445.33249785744283, "timestamp": "2025-12-24T14:43:27.719050+00:00", "meta": {"OBJECT_NAME": "STARLINK-35391", "OBJECT_ID": "2025-270AE", "EPOCH": "2025-12-23T18:47:24.441792", "MEAN_MOTION": 15.4075586, "ECCENTRICITY": 0.00023181, "INCLINATION": 43.0035, "RA_OF_ASC_NODE": 128.6027, "ARG_OF_PERICENTER": 265.0405, "MEAN_ANOMALY": 95.0187, "EPHEMERIS_TYPE": 0, "CLASSIFICATION_TYPE": "U", "NORAD_CAT_ID": 66616, "ELEMENT_SET_NO": 999, "REV_AT_EPOCH": 616, "BSTAR": 0.0014141902, "MEAN_MOTION_DOT": 0.00059344, "MEAN_MOTION_DDOT": 0}, "tle": {"line1": "1 66616U 25270AE  25357.78292178  .00059344  00000+0  14142-2 0  9995", "line2": "2 66616  43.0035 128.6027 0002318 265.0405  95.0187 15.40755860  6168"}}, "geometry": {"type": "Point", "coordinates": [63.607217812656174, -38.96558668385333]}}, {"type": "Feature", "properties": {"norad_id": 66617, "name": "STARLINK-35940", "group": "last-30-days", "lat": 35.351072573915005, "lon": -80.99811673491088, "alt_km": 442.2046948277439, "timestamp": "2025-12-24T14:43:27.719060+00:00", "meta": {"OBJECT_NAME": "STARLINK-35940", "OBJECT_ID": "2025-271A", "EPOCH": "2025-12-23T21:00:36.315648", "MEAN_MOTION": 15.39658596, "ECCENTRICITY": 8.19e-05, "INCLINATION": 53.1585, "RA_OF_ASC_NODE": 134.6126, "ARG_OF_PERICENTER": 60.5244, "MEAN_ANOMALY": 299.5843, "EPHEMERIS_TYPE": 0, "CLASSIFICATION_TYPE": "U", "NORAD_CAT_ID": 66617, "ELEMENT_SET_NO": 999, "REV_AT_EPOCH": 592, "BSTAR": 0.0013114, "MEAN_MOTION_DOT": 0.00052483, "MEAN_MOTION_DDOT": 0}, "tle": {"line1": "1 66617U 25271A   25357.87542032  .00052483  00000+0  13114-2 0  9999", "line2": "2 66617  53.1585 134.6126 0000819  60.5244 299.5843 15.39658596  5920"}}, "geometry": {"type": "Point", "coordinates": [-80.99811673491088, 35.351072573915005]}}, {"type": "Feature", "properties": {"norad_id": 66618, "name": "STARLINK-35970", "group": "last-30-days", "lat": 52.320512089160275, "lon": -125.62494054726052, "alt_km": 423.5638256261627, "timestamp": "2025-12-24T14:43:27.719071+00:00", "meta": {"OBJECT_NAME": "STARLINK-35970", "OBJECT_ID": "2025-271B", "EPOCH": "2025-12-24T08:00:03.000384", "MEAN_MOTION": 15.45967453, "ECCENTRICITY": 0.00010243, "INCLINATION": 53.1598, "RA_OF_ASC_NODE": 131.8147, "ARG_OF_PERICENTER": 86.5653, "MEAN_ANOMALY": 252.3115, "EPHEMERIS_TYPE": 0, "CLASSIFICATION_TYPE": "U", "NORAD_CAT_ID": 66618, "ELEMENT_SET_NO": 999, "REV_AT_EPOCH": 610, "BSTAR": -0.03571978, "MEAN_MOTION_DOT": -0.01590316, "MEAN_MOTION_DDOT": 0}, "tle": {"line1": "1 66618U 25271B   25358.33336806 -.01590316  00000+0 -35720-1 0  9993", "line2": "2 66618  53.1598 131.8147 0001024  86.5653 252.3115 15.45967453  6100"}}, "geometry": {"type": "Point", "coordinates": [-125.62494054726052, 52.320512089160275]}}, {"type": "Feature", "properties": {"norad_id": 66619, "name": "STARLINK-35951", "group": "last-30-days", "lat": 4.021264973629969, "lon": 133.69382134649155, "alt_km": 447.6351490656216, "timestamp": "2025-12-24T14:43:27.719081+00:00", "meta": {"OBJECT_NAME": "STARLINK-35951", "OBJECT_ID": "2025-271C", "EPOCH": "2025-12-24T08:00:03.000384", "MEAN_MOTION": 15.39574084, "ECCENTRICITY": 0.00014547, "INCLINATION": 53.1598, "RA_OF_ASC_NODE": 131.993, "ARG_OF_PERICENTER": 95.1147, "MEAN_ANOMALY": 156.4277, "EPHEMERIS_TYPE": 0, "CLASSIFICATION_TYPE": "U", "NORAD_CAT_ID": 66619, "ELEMENT_SET_NO": 999, "REV_AT_EPOCH": 610, "BSTAR": 0.0017264414, "MEAN_MOTION_DOT": 0.00069181, "MEAN_MOTION_DDOT": 0}, "tle": {"line1": "1 66619U 25271C   25358.33336806  .00069181  00000+0  17264-2 0  9996", "line2": "2 66619  53.1598 131.9930 0001454  95.1147 156.4277 15.39574084  6103"}}, "geometry": {"type": "Point", "coordinates": [133.69382134649155, 4.021264973629969]}}, {"type": "Feature", "properties": {"norad_id": 66620, "name": "STARLINK-35936", "group": "last-30-days", "lat": -35.43482462057577, "lon": 98.535793492651, "alt_km": 451.7892958739876, "timestamp": "2025-12-24T14:43:27.719093+00:00", "meta": {"OBJECT_NAME": "STARLINK-35936", "OBJECT_ID": "2025-271D", "EPOCH": "2025-12-24T08:00:03.000384", "MEAN_MOTION": 15.3957838, "ECCENTRICITY": 9.526e-05, "INCLINATION": 53.1602, "RA_OF_ASC_NODE": 132.0969, "ARG_OF_PERICENTER": 79.2289, "MEAN_ANOMALY": 120.8103, "EPHEMERIS_TYPE": 0, "CLASSIFICATION_TYPE": "U", "NORAD_CAT_ID": 66620, "ELEMENT_SET_NO": 999, "REV_AT_EPOCH": 610, "BSTAR": 0.001709683, "MEAN_MOTION_DOT": 0.00068509, "MEAN_MOTION_DDOT": 0}, "tle": {"line1": "1 66620U 25271D   25358.33336806  .00068509  00000+0  17097-2 0  9995", "line2": "2 66620  53.1602 132.0969 0000952  79.2289 120.8103 15.39578380  6103"}}, "geometry": {"type": "Point", "coordinates": [98.535793492651, -35.43482462057577]}}, {"type": "Feature", "properties": {"norad_id": 66621, "name": "STARLINK-35847", "group": "last-30-days", "lat": 51.46448331144159, "lon": -119.80261201289885, "alt_km": 422.04610616364243, "timestamp": "2025-12-24T14:43:27.719103+00:00", "meta": {"OBJECT_NAME": "STARLINK-35847", "OBJECT_ID": "2025-271E", "EPOCH": "2025-12-24T08:00:03.000384", "MEAN_MOTION": 15.45475244, "ECCENTRICITY": 0.00012847, "INCLINATION": 53.1598, "RA_OF_ASC_NODE": 131.8065, "ARG_OF_PERICENTER": 92.3548, "MEAN_ANOMALY": 250.1916, "EPHEMERIS_TYPE": 0, "CLASSIFICATION_TYPE": "U", "NORAD_CAT_ID": 66621, "ELEMENT_SET_NO": 999, "REV_AT_EPOCH": 610, "BSTAR": 0.0019717158, "MEAN_MOTION_DOT": 0.00096773, "MEAN_MOTION_DDOT": 0}, "tle": {"line1": "1 66621U 25271E   25358.33336806  .00096773  00000+0  19717-2 0  9991", "line2": "2 66621  53.1598 131.8065 0001284  92.3548 250.1916 15.45475244  6106"}}, "geometry": {"type": "Point", "coordinates": [-119.80261201289885, 51.46448331144159]}}, {"type": "Feature", "properties": {"norad_id": 66622, "name": "STARLINK-35950", "group": "last-30-days", "lat": -41.87682854790235, "lon": -6.8424495287207465, "alt_km": 452.00121772212333, "timestamp": "2025-12-24T14:43:27.719116+00:00", "meta": {"OBJECT_NAME": "STARLINK-35950", "OBJECT_ID": "2025-271F", "EPOCH": "2025-12-24T02:47:46.309344", "MEAN_MOTION": 15.39636981, "ECCENTRICITY": 8.937e-05, "INCLINATION": 53.1619, "RA_OF_ASC_NODE": 133.2717, "ARG_OF_PERICENTER": 81.3415, "MEAN_ANOMALY": 278.7691, "EPHEMERIS_TYPE": 0, "CLASSIFICATION_TYPE": "U", "NORAD_CAT_ID": 66622, "ELEMENT_SET_NO": 999, "REV_AT_EPOCH": 596, "BSTAR": 0.0015476928, "MEAN_MOTION_DOT": 0.00062047, "MEAN_MOTION_DDOT": 0}, "tle": {"line1": "1 66622U 25271F   25358.11650821  .00062047  00000+0  15477-2 0  9990", "line2": "2 66622  53.1619 133.2717 0000893  81.3415 278.7691 15.39636981  5966"}}, "geometry": {"type": "Point", "coordinates": [-6.8424495287207465, -41.87682854790235]}}, {"type": "Feature", "properties": {"norad_id": 66623, "name": "STARLINK-35920", "group": "last-30-days", "lat": -4.052832150040085, "lon": -45.925654058180776, "alt_km": 448.7225236750701, "timestamp": "2025-12-24T14:43:27.719126+00:00", "meta": {"OBJECT_NAME": "STARLINK-35920", "OBJECT_ID": "2025-271G", "EPOCH": "2025-12-24T04:34:37.527168", "MEAN_MOTION": 15.39635267, "ECCENTRICITY": 0.00022835, "INCLINATION": 53.1607, "RA_OF_ASC_NODE": 133.0223, "ARG_OF_PERICENTER": 85.3238, "MEAN_ANOMALY": 274.8028, "EPHEMERIS_TYPE": 0, "CLASSIFICATION_TYPE": "U", "NORAD_CAT_ID": 66623, "ELEMENT_SET_NO": 999, "REV_AT_EPOCH": 597, "BSTAR": 0.0010522466, "MEAN_MOTION_DOT": 0.00041944, "MEAN_MOTION_DDOT": 0}, "tle": {"line1": "1 66623U 25271G   25358.19071212  .00041944  00000+0  10522-2 0  9999", "line2": "2 66623  53.1607 133.0223 0002283  85.3238 274.8028 15.39635267  5974"}}, "geometry": {"type": "Point", "coordinates": [-45.925654058180776, -4.052832150040085]}}, {"type": "Feature", "properties": {"norad_id": 66624, "name": "STARLINK-35927", "group": "last-30-days", "lat": 24.098221277177082, "lon": 150.21505811852737, "alt_km": 444.73431757490835, "timestamp": "2025-12-24T14:43:27.719136+00:00", "meta": {"OBJECT_NAME": "STARLINK-35927", "OBJECT_ID": "2025-271H", "EPOCH": "2025-12-24T08:00:03.000384", "MEAN_MOTION": 15.39545425, "ECCENTRICITY": 9.784e-05, "INCLINATION": 53.1603, "RA_OF_ASC_NODE": 131.9426, "ARG_OF_PERICENTER": 131.5083, "MEAN_ANOMALY": 145.6877, "EPHEMERIS_TYPE": 0, "CLASSIFICATION_TYPE": "U", "NORAD_CAT_ID": 66624, "ELEMENT_SET_NO": 999, "REV_AT_EPOCH": 610, "BSTAR": 0.0025235088, "MEAN_MOTION_DOT": 0.00101644, "MEAN_MOTION_DDOT": 0}, "tle": {"line1": "1 66624U 25271H   25358.33336806  .00101644  00000+0  25235-2 0  9990", "line2": "2 66624  53.1603 131.9426 0000978 131.5083 145.6877 15.39545425  6103"}}, "geometry": {"type": "Point", "coordinates": [150.21505811852737, 24.098221277177082]}}]}